CCSDS_OMM_VERS = 2.0
CREATION_DATE  = 
ORIGINATOR     = 

OBJECT_NAME    = ARIANE 40 R/B
OBJECT_ID      = 1990-005H
CENTER_NAME    = EARTH
REF_FRAME      = TEME
TIME_SYSTEM    = UTC
MEAN_ELEMENT_THEORY = SGP/SGP4

EPOCH          = 2025-11-23T03:23:55.159296
MEAN_MOTION    = 14.39776797
ECCENTRICITY   = .0010623
INCLINATION    = 98.3269
RA_OF_ASC_NODE = 25.8711
ARG_OF_PERICENTER = 159.6620
MEAN_ANOMALY   = 200.4993

EPHEMERIS_TYPE = 0
CLASSIFICATION_TYPE = U
NORAD_CAT_ID   = 20443
ELEMENT_SET_NO = 999
REV_AT_EPOCH   = 87747
BSTAR          = .12252E-3
MEAN_MOTION_DOT = .342E-5
MEAN_MOTION_DDOT = 0

CCSDS_OMM_VERS = 2.0
CREATION_DATE  = 
ORIGINATOR     = 

OBJECT_NAME    = DELTA 2 R/B(1)
OBJECT_ID      = 1990-008B
CENTER_NAME    = EARTH
REF_FRAME      = TEME
TIME_SYSTEM    = UTC
MEAN_ELEMENT_THEORY = SGP/SGP4

EPOCH          = 2025-11-22T18:33:18.785376
MEAN_MOTION    = 15.43336294
ECCENTRICITY   = .0115273
INCLINATION    = 35.6044
RA_OF_ASC_NODE = 149.2721
ARG_OF_PERICENTER = 355.8331
MEAN_ANOMALY   = 4.1435

EPHEMERIS_TYPE = 0
CLASSIFICATION_TYPE = U
NORAD_CAT_ID   = 20453
ELEMENT_SET_NO = 999
REV_AT_EPOCH   = 90954
BSTAR          = .53738E-3
MEAN_MOTION_DOT = .31741E-3
MEAN_MOTION_DDOT = 0

CCSDS_OMM_VERS = 2.0
CREATION_DATE  = 
ORIGINATOR     = 

OBJECT_NAME    = COSMOS 2058
OBJECT_ID      = 1990-010A
CENTER_NAME    = EARTH
REF_FRAME      = TEME
TIME_SYSTEM    = UTC
MEAN_ELEMENT_THEORY = SGP/SGP4

EPOCH          = 2025-11-23T00:21:15.823872
MEAN_MOTION    = 15.10226285
ECCENTRICITY   = .0009792
INCLINATION    = 82.4628
RA_OF_ASC_NODE = 152.4362
ARG_OF_PERICENTER = 351.7156
MEAN_ANOMALY   = 8.3910

EPHEMERIS_TYPE = 0
CLASSIFICATION_TYPE = U
NORAD_CAT_ID   = 20465
ELEMENT_SET_NO = 999
REV_AT_EPOCH   = 92613
BSTAR          = .21824E-3
MEAN_MOTION_DOT = .3598E-4
MEAN_MOTION_DDOT = 0

CCSDS_OMM_VERS = 2.0
CREATION_DATE  = 
ORIGINATOR     = 

OBJECT_NAME    = SL-14 R/B
OBJECT_ID      = 1990-010B
CENTER_NAME    = EARTH
REF_FRAME      = TEME
TIME_SYSTEM    = UTC
MEAN_ELEMENT_THEORY = SGP/SGP4

EPOCH          = 2025-11-23T02:48:27.839232
MEAN_MOTION    = 14.83445102
ECCENTRICITY   = .0018368
INCLINATION    = 82.5034
RA_OF_ASC_NODE = 7.4764
ARG_OF_PERICENTER = 292.8226
MEAN_ANOMALY   = 67.1049

EPHEMERIS_TYPE = 0
CLASSIFICATION_TYPE = U
NORAD_CAT_ID   = 20466
ELEMENT_SET_NO = 999
REV_AT_EPOCH   = 91268
BSTAR          = .52945E-4
MEAN_MOTION_DOT = .459E-5
MEAN_MOTION_DDOT = 0

CCSDS_OMM_VERS = 2.0
CREATION_DATE  = 
ORIGINATOR     = 

OBJECT_NAME    = SL-14 R/B
OBJECT_ID      = 1990-018B
CENTER_NAME    = EARTH
REF_FRAME      = TEME
TIME_SYSTEM    = UTC
MEAN_ELEMENT_THEORY = SGP/SGP4

EPOCH          = 2025-11-23T02:23:50.348256
MEAN_MOTION    = 14.82017506
ECCENTRICITY   = .0017984
INCLINATION    = 82.5198
RA_OF_ASC_NODE = 322.7238
ARG_OF_PERICENTER = 83.5081
MEAN_ANOMALY   = 276.8181

EPHEMERIS_TYPE = 0
CLASSIFICATION_TYPE = U
NORAD_CAT_ID   = 20511
ELEMENT_SET_NO = 999
REV_AT_EPOCH   = 90679
BSTAR          = .56252E-4
MEAN_MOTION_DOT = .471E-5
MEAN_MOTION_DDOT = 0

CCSDS_OMM_VERS = 2.0
CREATION_DATE  = 
ORIGINATOR     = 

OBJECT_NAME    = HST
OBJECT_ID      = 1990-037B
CENTER_NAME    = EARTH
REF_FRAME      = TEME
TIME_SYSTEM    = UTC
MEAN_ELEMENT_THEORY = SGP/SGP4

EPOCH          = 2025-11-22T08:19:25.578048
MEAN_MOTION    = 15.27650885
ECCENTRICITY   = .0001781
INCLINATION    = 28.4697
RA_OF_ASC_NODE = 51.2463
ARG_OF_PERICENTER = 26.3664
MEAN_ANOMALY   = 333.7022

EPHEMERIS_TYPE = 0
CLASSIFICATION_TYPE = U
NORAD_CAT_ID   = 20580
ELEMENT_SET_NO = 999
REV_AT_EPOCH   = 75687
BSTAR          = .28782E-3
MEAN_MOTION_DOT = .8231E-4
MEAN_MOTION_DDOT = 0

CCSDS_OMM_VERS = 2.0
CREATION_DATE  = 
ORIGINATOR     = 

OBJECT_NAME    = SL-16 R/B
OBJECT_ID      = 1990-046B
CENTER_NAME    = EARTH
REF_FRAME      = TEME
TIME_SYSTEM    = UTC
MEAN_ELEMENT_THEORY = SGP/SGP4

EPOCH          = 2025-11-23T00:32:38.959296
MEAN_MOTION    = 14.14990519
ECCENTRICITY   = .0012243
INCLINATION    = 70.9959
RA_OF_ASC_NODE = 161.9289
ARG_OF_PERICENTER = 109.9431
MEAN_ANOMALY   = 250.3012

EPHEMERIS_TYPE = 0
CLASSIFICATION_TYPE = U
NORAD_CAT_ID   = 20625
ELEMENT_SET_NO = 999
REV_AT_EPOCH   = 83330
BSTAR          = .86578E-4
MEAN_MOTION_DOT = .12E-5
MEAN_MOTION_DDOT = 0

CCSDS_OMM_VERS = 2.0
CREATION_DATE  = 
ORIGINATOR     = 

OBJECT_NAME    = COSMOS 2084
OBJECT_ID      = 1990-055A
CENTER_NAME    = EARTH
REF_FRAME      = TEME
TIME_SYSTEM    = UTC
MEAN_ELEMENT_THEORY = SGP/SGP4

EPOCH          = 2025-11-23T02:22:50.754720
MEAN_MOTION    = 15.04843953
ECCENTRICITY   = .0034806
INCLINATION    = 62.7910
RA_OF_ASC_NODE = 338.9069
ARG_OF_PERICENTER = 172.3038
MEAN_ANOMALY   = 187.8604

EPHEMERIS_TYPE = 0
CLASSIFICATION_TYPE = U
NORAD_CAT_ID   = 20663
ELEMENT_SET_NO = 999
REV_AT_EPOCH   = 92027
BSTAR          = .19539E-3
MEAN_MOTION_DOT = .2604E-4
MEAN_MOTION_DDOT = 0

CCSDS_OMM_VERS = 2.0
CREATION_DATE  = 
ORIGINATOR     = 

OBJECT_NAME    = SL-6 R/B(2)
OBJECT_ID      = 1990-055D
CENTER_NAME    = EARTH
REF_FRAME      = TEME
TIME_SYSTEM    = UTC
MEAN_ELEMENT_THEORY = SGP/SGP4

EPOCH          = 2025-11-23T01:46:41.153088
MEAN_MOTION    = 15.02942600
ECCENTRICITY   = .0011164
INCLINATION    = 62.7835
RA_OF_ASC_NODE = 256.2279
ARG_OF_PERICENTER = 292.8684
MEAN_ANOMALY   = 67.1236

EPHEMERIS_TYPE = 0
CLASSIFICATION_TYPE = U
NORAD_CAT_ID   = 20666
ELEMENT_SET_NO = 999
REV_AT_EPOCH   = 92216
BSTAR          = .20925E-3
MEAN_MOTION_DOT = .2632E-4
MEAN_MOTION_DDOT = 0

CCSDS_OMM_VERS = 2.0
CREATION_DATE  = 
ORIGINATOR     = 

OBJECT_NAME    = SL-8 R/B
OBJECT_ID      = 1990-078B
CENTER_NAME    = EARTH
REF_FRAME      = TEME
TIME_SYSTEM    = UTC
MEAN_ELEMENT_THEORY = SGP/SGP4

EPOCH          = 2025-11-23T03:04:19.752096
MEAN_MOTION    = 14.84759991
ECCENTRICITY   = .0378266
INCLINATION    = 82.9048
RA_OF_ASC_NODE = 346.8482
ARG_OF_PERICENTER = 11.6796
MEAN_ANOMALY   = 349.2890

EPHEMERIS_TYPE = 0
CLASSIFICATION_TYPE = U
NORAD_CAT_ID   = 20775
ELEMENT_SET_NO = 999
REV_AT_EPOCH   = 79346
BSTAR          = .6871E-3
MEAN_MOTION_DOT = .22216E-3
MEAN_MOTION_DDOT = 0

CCSDS_OMM_VERS = 2.0
CREATION_DATE  = 
ORIGINATOR     = 

OBJECT_NAME    = SL-8 R/B
OBJECT_ID      = 1991-006B
CENTER_NAME    = EARTH
REF_FRAME      = TEME
TIME_SYSTEM    = UTC
MEAN_ELEMENT_THEORY = SGP/SGP4

EPOCH          = 2025-11-22T22:09:27.451296
MEAN_MOTION    = 13.77486445
ECCENTRICITY   = .0022079
INCLINATION    = 82.9426
RA_OF_ASC_NODE = 249.4517
ARG_OF_PERICENTER = 337.9596
MEAN_ANOMALY   = 94.5909

EPHEMERIS_TYPE = 0
CLASSIFICATION_TYPE = U
NORAD_CAT_ID   = 21088
ELEMENT_SET_NO = 999
REV_AT_EPOCH   = 74937
BSTAR          = .87485E-4
MEAN_MOTION_DOT = .102E-5
MEAN_MOTION_DDOT = 0

CCSDS_OMM_VERS = 2.0
CREATION_DATE  = 
ORIGINATOR     = 

OBJECT_NAME    = OKEAN-3
OBJECT_ID      = 1991-039A
CENTER_NAME    = EARTH
REF_FRAME      = TEME
TIME_SYSTEM    = UTC
MEAN_ELEMENT_THEORY = SGP/SGP4

EPOCH          = 2025-11-22T18:57:01.071072
MEAN_MOTION    = 15.03921424
ECCENTRICITY   = .0014081
INCLINATION    = 82.5169
RA_OF_ASC_NODE = 80.3522
ARG_OF_PERICENTER = 339.9202
MEAN_ANOMALY   = 20.1468

EPHEMERIS_TYPE = 0
CLASSIFICATION_TYPE = U
NORAD_CAT_ID   = 21397
ELEMENT_SET_NO = 999
REV_AT_EPOCH   = 84896
BSTAR          = .29187E-3
MEAN_MOTION_DOT = .4058E-4
MEAN_MOTION_DDOT = 0

