ARIANE 40 R/B           
1 20443U 90005H   25327.14161064  .00000342  00000+0  12252-3 0  9992
2 20443  98.3269  25.8711 0010623 159.6620 200.4993 14.39776797877477
DELTA 2 R/B(1)          
1 20453U 90008B   25326.77313409  .00031741  00000+0  53738-3 0  9997
2 20453  35.6044 149.2721 0115273 355.8331   4.1435 15.43336294909545
COSMOS 2058             
1 20465U 90010A   25327.01476648  .00003598  00000+0  21824-3 0  9996
2 20465  82.4628 152.4362 0009792 351.7156   8.3910 15.10226285926131
SL-14 R/B               
1 20466U 90010B   25327.11698888  .00000459  00000+0  52945-4 0  9992
2 20466  82.5034   7.4764 0018368 292.8226  67.1049 14.83445102912682
SL-14 R/B               
1 20511U 90018B   25327.09988829  .00000471  00000+0  56252-4 0  9994
2 20511  82.5198 322.7238 0017984  83.5081 276.8181 14.82017506906793
HST                     
1 20580U 90037B   25326.34682382  .00008231  00000+0  28782-3 0  9991
2 20580  28.4697  51.2463 0001781  26.3664 333.7022 15.27650885756878
SL-16 R/B               
1 20625U 90046B   25327.02267314  .00000120  00000+0  86578-4 0  9998
2 20625  70.9959 161.9289 0012243 109.9431 250.3012 14.14990519833304
COSMOS 2084             
1 20663U 90055A   25327.09919855  .00002604  00000+0  19539-3 0  9992
2 20663  62.7910 338.9069 0034806 172.3038 187.8604 15.04843953920273
SL-6 R/B(2)             
1 20666U 90055D   25327.07408742  .00002632  00000+0  20925-3 0  9993
2 20666  62.7835 256.2279 0011164 292.8684  67.1236 15.02942600922162
SL-8 R/B                
1 20775U 90078B   25327.12800639  .00022216  00000+0  68710-3 0  9990
2 20775  82.9048 346.8482 0378266  11.6796 349.2890 14.84759991793462
SL-8 R/B                
1 21088U 91006B   25326.92323439  .00000102  00000+0  87485-4 0  9996
2 21088  82.9426 249.4517 0022079 337.9596  94.5909 13.77486445749371
OKEAN-3                 
1 21397U 91039A   25326.78959573  .00004058  00000+0  29187-3 0  9991
2 21397  82.5169  80.3522 0014081 339.9202  20.1468 15.03921424848964
